NORAD_CAT_ID,OBJECT_NAME,OBJECT_TYPE,EPOCH,MEAN_MOTION,ECCENTRICITY,INCLINATION,RA_OF_ASC_NODE,ARG_OF_PERICENTER,MEAN_ANOMALY,BSTAR,MEAN_MOTION_DOT,MEAN_MOTION_DDOT,TLE_LINE0,TLE_LINE1,TLE_LINE2,SEMIMAJOR_AXIS,PERIOD,APOGEE,PERIGEE,DECAYED
56818.0,STARLINK-6028,PAYLOAD,2024-04-05 21:37:28,14.98332131,0.0002992,69.9989,316.2599,269.4284,90.6532,-1.1026e-05,-2.25e-06,0.0,0 STARLINK-6028,1 56818U 23078BD  24096.90102671 -.00000225  00000-0 -11026-4 0  9990,2 56818  69.9989 316.2599 0002992 269.4284  90.6532 14.98332131 47676,6950.186,96.107,574.131,569.972,0.0
56818.0,STARLINK-6028,PAYLOAD,2024-04-06 07:14:17,14.98330083,0.0002968,69.999,315.2498,269.8108,90.2711,-1.3972e-05,-2.6e-06,0.0,0 STARLINK-6028,1 56818U 23078BD  24097.30158762 -.00000260  00000-0 -13972-4 0  9998,2 56818  69.9990 315.2498 0002968 269.8108  90.2711 14.98330083 48161,6950.193,96.107,574.12,569.995,0.0
56818.0,STARLINK-6028,PAYLOAD,2024-04-06 21:39:29,14.98332078,0.0002764,69.9989,313.7352,263.9086,96.1758,8.7869e-06,1.2e-07,0.0,0 STARLINK-6028,1 56818U 23078BD  24097.90242506  .00000012  00000-0  87869-5 0  9994,2 56818  69.9989 313.7352 0002764 263.9086  96.1758 14.98332078 48257,6950.186,96.107,573.972,570.13,0.0
56818.0,STARLINK-6028,PAYLOAD,2024-04-07 07:16:17,14.98339789,0.0003055,69.9989,312.7247,270.0384,90.0424,-0.00025437,-3.128e-05,0.0,0 STARLINK-6028,1 56818U 23078BD  24098.30298573 -.00003128  00000-0 -25437-3 0  9998,2 56818  69.9989 312.7247 0003055 270.0384  90.0424 14.98339789 48319,6950.163,96.106,574.151,569.904,0.0
56818.0,STARLINK-6028,PAYLOAD,2024-04-07 21:41:30,14.9832684,0.0002972,69.9987,311.2096,270.0718,90.0101,-1.3973e-05,-2.6e-06,0.0,0 STARLINK-6028,1 56818U 23078BD  24098.90382943 -.00000260  00000-0 -13973-4 0  9996,2 56818  69.9987 311.2096 0002972 270.0718  90.0101 14.98326840 48407,6950.203,96.107,574.133,570.002,0.0
56818.0,STARLINK-6028,PAYLOAD,2024-04-07 23:17:38,14.98326795,0.0002983,69.9987,311.0412,270.5528,89.5289,-1.447e-05,-2.66e-06,0.0,0 STARLINK-6028,1 56818U 23078BD  24098.97058958 -.00000266  00000-0 -14470-4 0  9998,2 56818  69.9987 311.0412 0002983 270.5528  89.5289 14.98326795 47984,6950.203,96.107,574.141,569.995,0.0
56818.0,STARLINK-6028,PAYLOAD,2024-04-08 07:18:18,14.98337456,0.0002977,69.9994,310.1992,270.3465,89.7353,-0.00012212,-1.55e-05,0.0,0 STARLINK-6028,1 56818U 23078BD  24099.30438543 -.00001550  00000-0 -12212-3 0  9996,2 56818  69.9994 310.1992 0002977 270.3465  89.7353 14.98337456 48033,6950.17,96.107,574.104,569.966,0.0
56818.0,STARLINK-6028,PAYLOAD,2024-04-08 23:19:39,14.98334869,0.0003057,69.9992,308.5162,268.9582,91.1227,9.3757e-05,1.026e-05,0.0,0 STARLINK-6028,1 56818U 23078BD  24099.97198001  .00001026  00000-0  93757-4 0  9991,2 56818  69.9992 308.5162 0003057 268.9582  91.1227 14.98334869 48564,6950.178,96.107,574.168,569.918,0.0
56818.0,STARLINK-6028,PAYLOAD,2024-04-09 07:20:19,14.98331006,0.0003167,69.9991,307.6733,270.6148,89.4648,3.0622e-05,2.72e-06,0.0,0 STARLINK-6028,1 56818U 23078BD  24100.30578314  .00000272  00000-0  30622-4 0  9994,2 56818  69.9991 307.6733 0003167 270.6148  89.4648 14.98331006 48182,6950.19,96.107,574.256,569.854,0.0
56818.0,STARLINK-6028,PAYLOAD,2024-04-09 21:45:32,14.983269,0.0003188,69.9985,306.1579,269.7234,90.356,-2.6192e-05,-4.06e-06,0.0,0 STARLINK-6028,1 56818U 23078BD  24100.90662803 -.00000406  00000-0 -26192-4 0  9995,2 56818  69.9985 306.1579 0003188 269.7234  90.3560 14.98326900 48704,6950.202,96.107,574.283,569.852,0.0
56818.0,STARLINK-6028,PAYLOAD,2024-04-10 07:22:21,14.98327402,0.0003171,69.9986,305.1484,270.1294,89.9502,-1.507e-05,-2.73e-06,0.0,0 STARLINK-6028,1 56818U 23078BD  24101.30718794 -.00000273  00000-0 -15070-4 0  9996,2 56818  69.9986 305.1484 0003171 270.1294  89.9502 14.98327402 48330,6950.201,96.107,574.27,569.862,0.0
56818.0,STARLINK-6028,PAYLOAD,2024-04-10 21:47:33,14.98326616,0.000306,69.9987,303.634,271.6942,88.3866,-4.3255e-05,-6.09e-06,0.0,0 STARLINK-6028,1 56818U 23078BD  24101.90803010 -.00000609  00000-0 -43255-4 0  9997,2 56818  69.9987 303.6340 0003060 271.6942  88.3866 14.98326616 48857,6950.203,96.107,574.195,569.942,0.0
56818.0,STARLINK-6028,PAYLOAD,2024-04-11 13:48:53,14.98330249,0.0003135,69.9982,301.9508,271.3703,88.7097,7.5772e-05,8.11e-06,0.0,0 STARLINK-6028,1 56818U 23078BD  24102.57562463  .00000811  00000-0  75772-4 0  9997,2 56818  69.9982 301.9508 0003135 271.3703  88.7097 14.98330249 48952,6950.192,96.107,574.236,569.878,0.0
56818.0,STARLINK-6028,PAYLOAD,2024-04-11 20:13:26,14.98331983,0.0003119,69.9984,301.2776,270.9998,89.0804,0.00010133,1.116e-05,0.0,0 STARLINK-6028,1 56818U 23078BD  24102.84266260  .00001116  00000-0  10133-3 0  9991,2 56818  69.9984 301.2776 0003119 270.9998  89.0804 14.98331983 48560,6950.187,96.107,574.22,569.884,0.0
56818.0,STARLINK-6028,PAYLOAD,2024-04-11 21:49:34,14.98332406,0.0003107,69.9984,301.1092,271.0269,89.0534,0.00010432,1.152e-05,0.0,0 STARLINK-6028,1 56818U 23078BD  24102.90942222  .00001152  00000-0  10432-3 0  9999,2 56818  69.9984 301.1092 0003107 271.0269  89.0534 14.98332406 49001,6950.185,96.107,574.21,569.891,0.0
56818.0,STARLINK-6028,PAYLOAD,2024-04-12 13:50:54,14.98330484,0.0003082,69.9983,299.4258,271.0237,89.0569,8.0721e-05,8.7e-06,0.0,0 STARLINK-6028,1 56818U 23078BD  24103.57702374  .00000870  00000-0  80721-4 0  9990,2 56818  69.9983 299.4258 0003082 271.0237  89.0569 14.98330484 49103,6950.191,96.107,574.198,569.914,0.0
56818.0,STARLINK-6028,PAYLOAD,2024-04-12 15:27:01,14.98354697,0.0003094,69.9994,299.257,282.6636,77.4177,0.00031645,3.687e-05,0.0,0 STARLINK-6028,1 56818U 23078BD  24103.64376454  .00003687  00000-0  31645-3 0  9993,2 56818  69.9994 299.2570 0003094 282.6636  77.4177 14.98354697 48684,6950.117,96.105,574.132,569.831,0.0
56818.0,STARLINK-6028,PAYLOAD,2024-04-12 21:51:31,14.98368852,0.0002836,69.998,298.5828,267.6463,92.4371,0.00041361,4.85e-05,0.0,0 STARLINK-6028,1 56818U 23078BD  24103.91078699  .00004850  00000-0  41361-3 0  9992,2 56818  69.9980 298.5828 0002836 267.6463  92.4371 14.98368852 49155,6950.073,96.105,573.909,569.967,0.0
56818.0,STARLINK-6028,PAYLOAD,2024-04-12 23:27:39,14.98369434,0.0002852,69.998,298.4146,269.103,90.9802,0.00041414,4.857e-05,0.0,0 STARLINK-6028,1 56818U 23078BD  24103.97754516  .00004857  00000-0  41414-3 0  9993,2 56818  69.9980 298.4146 0002852 269.1030  90.9802 14.98369434 48734,6950.071,96.104,573.918,569.954,0.0
56818.0,STARLINK-6028,PAYLOAD,2024-04-13 13:52:54,14.98343774,0.0002854,69.9991,296.9021,251.1356,108.9493,4.1769e-05,4.06e-06,0.0,0 STARLINK-6028,1 56818U 23078BD  24104.57840286  .00000406  00000-0  41769-4 0  9990,2 56818  69.9991 296.9021 0002854 251.1356 108.9493 14.98343774 49258,6950.15,96.106,573.999,570.032,0.0
56818.0,STARLINK-6028,PAYLOAD,2024-04-13 20:17:26,14.98334169,0.0002999,69.9993,296.2273,271.5837,88.4978,-2.4829e-05,-3.89e-06,0.0,0 STARLINK-6028,1 56818U 23078BD  24104.84545125 -.00000389  00000-0 -24829-4 0  9994,2 56818  69.9993 296.2273 0002999 271.5837  88.4978 14.98334169 48866,6950.18,96.107,574.129,569.961,0.0
56818.0,STARLINK-6028,PAYLOAD,2024-04-14 12:18:48,14.98319538,0.000315,69.9981,294.5459,267.8592,92.2206,-0.00013294,-1.678e-05,0.0,0 STARLINK-6028,1 56818U 23078BD  24105.51306244 -.00001678  00000-0 -13294-3 0  9991,2 56818  69.9981 294.5459 0003150 267.8592  92.2206 14.98319538 48967,6950.225,96.108,574.28,569.901,0.0
56818.0,STARLINK-6028,PAYLOAD,2024-04-14 21:55:36,14.98325517,0.0003035,69.9984,293.5342,271.5203,88.5608,-0.00014308,-1.8e-05,0.0,0 STARLINK-6028,1 56818U 23078BD  24105.91362093 -.00001800  00000-0 -14308-3 0  9993,2 56818  69.9984 293.5342 0003035 271.5203  88.5608 14.98325517 49456,6950.207,96.107,574.181,569.962,0.0
56818.0,STARLINK-6028,PAYLOAD,2024-04-15 13:56:57,14.98314138,0.0003102,70.0004,291.8529,264.6826,95.398,0.00010779,1.193e-05,0.0,0 STARLINK-6028,1 56818U 23078BD  24106.58121934  .00001193  00000-0  10779-3 0  9995,2 56818  70.0004 291.8529 0003102 264.6826  95.3980 14.98314138 49556,6950.242,96.108,574.263,569.951,0.0
56818.0,STARLINK-6028,PAYLOAD,2024-04-15 20:21:29,14.98318902,0.0003003,70.0004,291.1795,260.995,99.087,0.00016348,1.858e-05,0.0,0 STARLINK-6028,1 56818U 23078BD  24106.84825722  .00001858  00000-0  16348-3 0  9996,2 56818  70.0004 291.1795 0003003 260.9950  99.0870 14.98318902 49597,6950.227,96.108,574.179,570.005,0.0
56818.0,STARLINK-6028,PAYLOAD,2024-04-15 21:57:37,14.98313827,0.0003397,69.9996,291.0094,273.2207,86.8563,0.00026246,3.039e-05,0.0,0 STARLINK-6028,1 56818U 23078BD  24106.91501879  .00003039  00000-0  26246-3 0  9999,2 56818  69.9996 291.0094 0003397 273.2207  86.8563 14.98313827 49171,6950.243,96.108,574.469,569.747,0.0
56818.0,STARLINK-6028,PAYLOAD,2024-04-16 12:22:50,14.98325912,0.0003299,69.9985,289.4933,269.901,90.1771,0.00014912,1.686e-05,0.0,0 STARLINK-6028,1 56818U 23078BD  24107.51585669  .00001686  00000-0  14912-3 0  9998,2 56818  69.9985 289.4933 0003299 269.9010  90.1771 14.98325912 49264,6950.206,96.107,574.363,569.778,0.0
56818.0,STARLINK-6028,PAYLOAD,2024-04-16 13:58:58,14.98326516,0.0003294,69.9986,289.3249,269.85,90.2282,0.00015401,1.745e-05,0.0,0 STARLINK-6028,1 56818U 23078BD  24107.58261644  .00001745  00000-0  15401-3 0  9999,2 56818  69.9986 289.3249 0003294 269.8500  90.2282 14.98326516 49700,6950.204,96.107,574.358,569.779,0.0
56818.0,STARLINK-6028,PAYLOAD,2024-04-16 20:23:29,14.98333626,0.0003239,69.9983,288.6514,269.53,90.5488,0.00022854,2.635e-05,0.0,0 STARLINK-6028,1 56818U 23078BD  24107.84965083  .00002635  00000-0  22854-3 0  9995,2 56818  69.9983 288.6514 0003239 269.5300  90.5488 14.98333626 49316,6950.182,96.107,574.298,569.796,0.0
56818.0,STARLINK-6028,PAYLOAD,2024-04-16 21:59:37,14.98335109,0.0003237,69.9983,288.4831,269.5529,90.5259,0.00024235,2.8e-05,0.0,0 STARLINK-6028,1 56818U 23078BD  24107.91640964  .00002800  00000-0  24235-3 0  9990,2 56818  69.9983 288.4831 0003237 269.5529  90.5259 14.98335109 49759,6950.177,96.107,574.292,569.792,0.0
